H1 CPF 01  gfz 2022 03 09 01  5681 terrasarx 
H2 0702601  6201 31698    2022 03 09 00 59 42 2022 03 14 00 00 42   120 1 1  0 0 0
H9
10 0 59650  42462.000000  0     954671.907  -1326780.817   6681191.718
10 0 59650  42582.000000  0     956685.826  -2215565.076   6441504.573
10 0 59650  42702.000000  0     926793.159  -3065439.425   6088606.801
10 0 59650  42822.000000  0     866326.000  -3861009.932   5628667.792
10 0 59650  42942.000000  0     777409.905  -4587848.404   5069736.228
10 0 59650  43062.000000  0     662909.506  -5232758.030   4421606.150
10 0 59650  43182.000000  0     526356.501  -5784021.654   3695651.846
10 0 59650  43302.000000  0     371860.842  -6231625.340   2904630.970
10 0 59650  43422.000000  0     204007.486  -6567450.639   2062460.053
10 0 59650  43542.000000  0      27740.810  -6785430.551   1183967.165
10 0 59650  43662.000000  0    -151759.893  -6881668.289    284626.117
10 0 59650  43782.000000  0    -329212.089  -6854512.143   -619725.873
10 0 59650  43902.000000  0    -499363.682  -6704582.764  -1513177.147
10 0 59650  44022.000000  0    -657125.507  -6434754.442  -2380029.556
10 0 59650  44142.000000  0    -797699.757  -6050092.930  -3205080.360
10 0 59650  44262.000000  0    -916701.376  -5557750.313  -3973893.284
10 0 59650  44382.000000  0   -1010268.994  -4966819.099  -4673052.030
10 0 59650  44502.000000  0   -1075162.759  -4288151.335  -5290390.188
10 0 59650  44622.000000  0   -1108847.268  -3534148.566  -5815195.603
10 0 59650  44742.000000  0   -1109557.708  -2718526.977  -6238386.752
10 0 59650  44862.000000  0   -1076348.335  -1856062.519  -6552658.944
10 0 59650  44982.000000  0   -1009122.763   -962321.929  -6752598.714
10 0 59650  45102.000000  0    -908646.029    -53384.445  -6834767.512
10 0 59650  45222.000000  0    -776537.380    854442.391  -6797753.696
10 0 59650  45342.000000  0    -615244.296   1744907.586  -6642193.554
10 0 59650  45462.000000  0    -427998.978   2602099.968  -6370761.560
10 0 59650  45582.000000  0    -218757.036   3410726.505  -5988130.770
10 0 59650  45702.000000  0       7881.665   4156383.143  -5500901.380
10 0 59650  45822.000000  0     246767.928   4825811.334  -4917497.027
10 0 59650  45942.000000  0     492312.208   5407138.376  -4248031.122
10 0 59650  46062.000000  0     738606.491   5890096.551  -3504141.665
10 0 59650  46182.000000  0     979556.569   6266215.004  -2698796.877
10 0 59650  46302.000000  0    1209021.984   6528980.803  -1846074.333
10 0 59650  46422.000000  0    1420960.572   6673964.580   -960915.892
10 0 59650  46542.000000  0    1609574.231   6698906.303    -58862.751
10 0 59650  46662.000000  0    1769451.780   6603757.307    844223.782
10 0 59650  46782.000000  0    1895704.511   6390678.208   1732448.551
10 0 59650  46902.000000  0    1984092.139   6063993.168   2590170.319
10 0 59650  47022.000000  0    2031135.603   5630101.043   3402284.927
10 0 59650  47142.000000  0    2034213.671   5097345.886   4154498.833
10 0 59650  47262.000000  0    1991639.999   4475848.520   4833586.179
10 0 59650  47382.000000  0    1902720.119   3777302.730   5427623.653
10 0 59650  47502.000000  0    1767785.904   3014745.516   5926195.363
10 0 59650  47622.000000  0    1588209.128   2202307.810   6320571.231
10 0 59650  47742.000000  0    1366392.208   1354946.727   6603855.172
10 0 59650  47862.000000  0    1105736.981    488165.805   6771098.936
10 0 59650  47982.000000  0     810592.421   -382268.762   6819382.085
10 0 59650  48102.000000  0     486181.985  -1240613.710   6747861.395
10 0 59650  48222.000000  0     138510.983  -2071433.770   6557785.152
10 0 59650  48342.000000  0    -225744.653  -2859879.260   6252472.725
10 0 59650  48462.000000  0    -599365.481  -3591952.955   5837258.625
10 0 59650  48582.000000  0    -974728.638  -4254759.012   5319402.980
10 0 59650  48702.000000  0   -1343960.187  -4836733.382   4707972.926
10 0 59650  48822.000000  0   -1699098.838  -5327854.136   4013691.791
10 0 59650  48942.000000  0   -2032265.794  -5719824.451   3248754.418
10 0 59650  49062.000000  0   -2335837.206  -6006221.620   2426613.144
10 0 59650  49182.000000  0   -2602615.078  -6182609.499   1561739.423
10 0 59650  49302.000000  0   -2825991.989  -6246612.737    669364.443
10 0 59650  49422.000000  0   -3000105.816  -6197949.949   -234796.155
10 0 59650  49542.000000  0   -3119980.419  -6038424.720  -1134827.556
10 0 59650  49662.000000  0   -3181648.881  -5771874.228  -2014904.938
10 0 59650  49782.000000  0   -3182256.173  -5404076.898  -2859579.692
10 0 59650  49902.000000  0   -3120138.443  -4942621.669  -3654056.638
10 0 59650  50022.000000  0   -2994876.609  -4396742.589  -4384455.241
10 0 59650  50142.000000  0   -2807324.080  -3777124.996  -5038049.575
10 0 59650  50262.000000  0   -2559609.015  -3095688.327  -5603484.108
10 0 59650  50382.000000  0   -2255111.584  -2365350.541  -6070962.381
10 0 59650  50502.000000  0   -1898416.128  -1599779.389  -6432406.702
10 0 59650  50622.000000  0   -1495239.383   -813135.288  -6681586.300
10 0 59650  50742.000000  0   -1052337.948    -19811.403  -6814213.060
10 0 59650  50862.000000  0    -577396.307    765824.294  -6828006.513
10 0 59650  50982.000000  0     -78895.667   1529682.507  -6722728.842
10 0 59650  51102.000000  0     434032.838   2258198.416  -6500188.396
10 0 59650  51222.000000  0     951770.861   2938567.693  -6164214.305
10 0 59650  51342.000000  0    1464389.796   3558969.486  -5720597.561
10 0 59650  51462.000000  0    1961836.777   4108771.500  -5177000.351
10 0 59650  51582.000000  0    2434129.003   4578715.110  -4542835.582
10 0 59650  51702.000000  0    2871552.579   4961078.048  -3829114.786
10 0 59650  51822.000000  0    3264861.451   5249809.529  -3048265.845
10 0 59650  51942.000000  0    3605473.553   5440635.503  -2213923.373
10 0 59650  52062.000000  0    3885658.788   5531129.942  -1340693.079
10 0 59650  52182.000000  0    4098713.550   5520750.688   -443895.039
10 0 59650  52302.000000  0    4239117.402   5410837.776    460709.978
10 0 59650  52422.000000  0    4302667.846   5204572.968   1357204.828
10 0 59650  52542.000000  0    4286588.219   4906901.795   2229803.334
10 0 59650  52662.000000  0    4189609.117   4524423.013   3063136.817
10 0 59650  52782.000000  0    4012016.904   4065241.777   3842534.434
10 0 59650  52902.000000  0    3755669.901   3538794.550   4554285.492
10 0 59650  53022.000000  0    3423984.963   2955651.188   5185883.194
10 0 59650  53142.000000  0    3021889.048   2327297.115   5726246.433
10 0 59650  53262.000000  0    2555741.416   1665901.310   6165908.225
10 0 59650  53382.000000  0    2033229.919    984077.004   6497176.403
10 0 59650  53502.000000  0    1463240.492    294638.808   6714261.520
10 0 59650  53622.000000  0     855703.510   -389637.066   6813372.360
10 0 59650  53742.000000  0     221419.794  -1056249.291   6792779.418
10 0 59650  53862.000000  0    -428131.784  -1693199.973   6652842.841
10 0 59650  53982.000000  0   -1081002.008  -2289210.446   6396005.880
10 0 59650  54102.000000  0   -1724989.905  -2833920.890   6026753.273
10 0 59650  54222.000000  0   -2347868.156  -3318070.890   5551538.402
10 0 59650  54342.000000  0   -2937615.966  -3733660.647   4978678.810
10 0 59650  54462.000000  0   -3482655.448  -4074088.272   4318216.773
10 0 59650  54582.000000  0   -3972082.985  -4334259.050   3581746.577
10 0 59650  54702.000000  0   -4395890.762  -4510665.517   2782213.152
10 0 59650  54822.000000  0   -4745175.289  -4601437.001   1933685.151
10 0 59650  54942.000000  0   -5012328.098  -4606356.309   1051103.834
10 0 59650  55062.000000  0   -5191202.427  -4526842.008    150013.900
10 0 59650  55182.000000  0   -5277252.129  -4365897.424   -753718.238
10 0 59650  55302.000000  0   -5267638.899  -4128027.351  -1644193.315
10 0 59650  55422.000000  0   -5161304.032  -3819123.531  -2505768.580
10 0 59650  55542.000000  0   -4959002.929  -3446322.804  -3323338.968
10 0 59650  55662.000000  0   -4663303.487  -3017843.163  -4082604.720
10 0 59650  55782.000000  0   -4278549.170  -2542801.714  -4770321.151
10 0 59650  55902.000000  0   -3810787.259  -2031018.883  -5374525.716
10 0 59650  56022.000000  0   -3267665.353  -1492814.169  -5884738.627
10 0 59650  56142.000000  0   -2658299.155   -938797.541  -6292134.701
10 0 59650  56262.000000  0   -1993114.089   -379661.339  -6589684.929
10 0 59650  56382.000000  0   -1283663.664    174023.160  -6772265.813
10 0 59650  56502.000000  0    -542430.319    712000.458  -6836736.812
10 0 59650  56622.000000  0     217389.700   1224515.881  -6781988.652
10 0 59650  56742.000000  0     982114.647   1702487.277  -6608960.411
10 0 59650  56862.000000  0    1737818.140   2137662.632  -6320627.590
10 0 59650  56982.000000  0    2470577.818   2522761.029  -5921956.155
10 0 59650  57102.000000  0    3166728.371   2851594.387  -5419825.352
10 0 59650  57222.000000  0    3813113.524   3119167.755  -4822919.663
10 0 59650  57342.000000  0    4397336.428   3321758.419  -4141590.973
10 0 59650  57462.000000  0    4908002.315   3456970.349  -3387688.886
10 0 59650  57582.000000  0    5334946.830   3523762.389  -2574361.733
10 0 59650  57702.000000  0    5669445.691   3522450.789  -1715832.178
10 0 59650  57822.000000  0    5904401.059   3454683.605   -827148.615
10 0 59650  57942.000000  0    6034497.892   3323387.265     76081.536
10 0 59650  58062.000000  0    6056327.467   3132686.594    977971.728
10 0 59650  58182.000000  0    5968473.136   2887799.662   1862643.827
10 0 59650  58302.000000  0    5771555.458   2594911.279   2714516.108
10 0 59650  58422.000000  0    5468237.052   2261027.105   3518586.740
10 0 59650  58542.000000  0    5063184.587   1893811.839   4260705.113
10 0 59650  58662.000000  0    4562990.057   1501416.795   4927824.342
10 0 59650  58782.000000  0    3976056.962   1092300.834   5508230.159
10 0 59650  58902.000000  0    3312450.455    675049.210   5991746.889
99
